[
    {
        "Altitude(m)": 557354.4089138769,
        "Argument of Periapsis(deg)": 0.013245982221427002,
        "Eccentricity": 0.0,
        "Inclination(deg)": 53.0,
        "Latitude(deg)": 41.925734450401535,
        "Longitude(deg)": 135.72478175086394,
        "Mean Anomaly(deg)": 56.54688573515516,
        "RAAN(deg)": 194.98028673705605,
        "Satellite Name": "Starlink Shell 1 860",
        "Satellite Number": 860,
        "Semi-Major Axis(m)": 6931778.249405717,
        "Time(s)": 380
    },
    {
        "Altitude(m)": 557435.2955133275,
        "Argument of Periapsis(deg)": 0.013594560700938237,
        "Eccentricity": 0.0,
        "Inclination(deg)": 53.0,
        "Latitude(deg)": 42.29483651799943,
        "Longitude(deg)": 136.36578669824831,
        "Mean Anomaly(deg)": 57.17371693871193,
        "RAAN(deg)": 194.97976796697859,
        "Satellite Name": "Starlink Shell 1 860",
        "Satellite Number": 860,
        "Semi-Major Axis(m)": 6931778.249405717,
        "Time(s)": 390
    },
    {
        "Altitude(m)": 557515.6301951159,
        "Argument of Periapsis(deg)": 0.013943139180449475,
        "Eccentricity": 0.0,
        "Inclination(deg)": 53.0,
        "Latitude(deg)": 42.65980866403778,
        "Longitude(deg)": 137.01475328306097,
        "Mean Anomaly(deg)": 57.800548142268624,
        "RAAN(deg)": 194.9792491969011,
        "Satellite Name": "Starlink Shell 1 860",
        "Satellite Number": 860,
        "Semi-Major Axis(m)": 6931778.249405717,
        "Time(s)": 400
    },
    {
        "Altitude(m)": 557595.3618985612,
        "Argument of Periapsis(deg)": 0.014291717659960712,
        "Eccentricity": 0.0,
        "Inclination(deg)": 53.0,
        "Latitude(deg)": 43.020550439689956,
        "Longitude(deg)": 137.67178595768976,
        "Mean Anomaly(deg)": 58.427379345825344,
        "RAAN(deg)": 194.97873042682363,
        "Satellite Name": "Starlink Shell 1 860",
        "Satellite Number": 860,
        "Semi-Major Axis(m)": 6931778.249405717,
        "Time(s)": 410
    },
    {
        "Altitude(m)": 557674.4400788067,
        "Argument of Periapsis(deg)": 0.014640296139471948,
        "Eccentricity": 0.0,
        "Inclination(deg)": 53.0,
        "Latitude(deg)": 43.376959562659174,
        "Longitude(deg)": 138.33698542190973,
        "Mean Anomaly(deg)": 59.05421054938201,
        "RAAN(deg)": 194.97821165674617,
        "Satellite Name": "Starlink Shell 1 860",
        "Satellite Number": 860,
        "Semi-Major Axis(m)": 6931778.249405717,
        "Time(s)": 420
    },
    {
        "Altitude(m)": 557752.8147321973,
        "Argument of Periapsis(deg)": 0.014988874618983185,
        "Eccentricity": 0.0,
        "Inclination(deg)": 53.0,
        "Latitude(deg)": 43.72893193685671,
        "Longitude(deg)": 139.0104487531602,
        "Mean Anomaly(deg)": 59.68104175293876,
        "RAAN(deg)": 194.97769288666868,
        "Satellite Name": "Starlink Shell 1 860",
        "Satellite Number": 860,
        "Semi-Major Axis(m)": 6931778.249405717,
        "Time(s)": 430
    },
    {
        "Altitude(m)": 557830.4364213982,
        "Argument of Periapsis(deg)": 0.015337453098494424,
        "Eccentricity": 0.0,
        "Inclination(deg)": 53.0,
        "Latitude(deg)": 44.07636167795485,
        "Longitude(deg)": 139.69226951812774,
        "Mean Anomaly(deg)": 60.30787295649548,
        "RAAN(deg)": 194.97717411659121,
        "Satellite Name": "Starlink Shell 1 860",
        "Satellite Number": 860,
        "Semi-Major Axis(m)": 6931778.249405717,
        "Time(s)": 440
    },
    {
        "Altitude(m)": 557907.2563001595,
        "Argument of Periapsis(deg)": 0.01568603157800566,
        "Eccentricity": 0.0,
        "Inclination(deg)": 53.0,
        "Latitude(deg)": 44.4191411452306,
        "Longitude(deg)": 140.38253635287174,
        "Mean Anomaly(deg)": 60.934704160052206,
        "RAAN(deg)": 194.97665534651372,
        "Satellite Name": "Starlink Shell 1 860",
        "Satellite Number": 860,
        "Semi-Major Axis(m)": 6931778.249405717,
        "Time(s)": 450
    },
    {
        "Altitude(m)": 557983.2261378124,
        "Argument of Periapsis(deg)": 0.0160346100575169,
        "Eccentricity": 0.0,
        "Inclination(deg)": 53.0,
        "Latitude(deg)": 44.75716098011635,
        "Longitude(deg)": 141.08133303748932,
        "Mean Anomaly(deg)": 61.5615353636089,
        "RAAN(deg)": 194.97613657643623,
        "Satellite Name": "Starlink Shell 1 860",
        "Satellite Number": 860,
        "Semi-Major Axis(m)": 6931778.249405717,
        "Time(s)": 460
    },
    {
        "Altitude(m)": 558058.2983433629,
        "Argument of Periapsis(deg)": 0.016383188537028134,
        "Eccentricity": 0.0,
        "Inclination(deg)": 53.0,
        "Latitude(deg)": 45.09031015188704,
        "Longitude(deg)": 141.78873855285153,
        "Mean Anomaly(deg)": 62.18836656716562,
        "RAAN(deg)": 194.97561780635877,
        "Satellite Name": "Starlink Shell 1 860",
        "Satellite Number": 860,
        "Semi-Major Axis(m)": 6931778.249405717,
        "Time(s)": 470
    },
    {
        "Altitude(m)": 558132.4259892963,
        "Argument of Periapsis(deg)": 0.01673176701653937,
        "Eccentricity": 0.0,
        "Inclination(deg)": 53.0,
        "Latitude(deg)": 45.418476010911654,
        "Longitude(deg)": 142.50482560710566,
        "Mean Anomaly(deg)": 62.81519777072229,
        "RAAN(deg)": 194.9750990362813,
        "Satellite Name": "Starlink Shell 1 860",
        "Satellite Number": 860,
        "Semi-Major Axis(m)": 6931778.249405717,
        "Time(s)": 480
    },
    {
        "Altitude(m)": 558205.562834988,
        "Argument of Periapsis(deg)": 0.017080345496050607,
        "Eccentricity": 0.0,
        "Inclination(deg)": 53.0,
        "Latitude(deg)": 45.741544349894234,
        "Longitude(deg)": 143.22966065846268,
        "Mean Anomaly(deg)": 63.44202897427909,
        "RAAN(deg)": 194.97458026620382,
        "Satellite Name": "Starlink Shell 1 860",
        "Satellite Number": 860,
        "Semi-Major Axis(m)": 6931778.249405717,
        "Time(s)": 490
    },
    {
        "Altitude(m)": 558277.6633497697,
        "Argument of Periapsis(deg)": 0.017428923975561842,
        "Eccentricity": 0.0,
        "Inclination(deg)": 53.0,
        "Latitude(deg)": 46.05939947352628,
        "Longitude(deg)": 143.96330392235413,
        "Mean Anomaly(deg)": 64.06886017783576,
        "RAAN(deg)": 194.97406149612635,
        "Satellite Name": "Starlink Shell 1 860",
        "Satellite Number": 860,
        "Semi-Major Axis(m)": 6931778.249405717,
        "Time(s)": 500
    },
    {
        "Altitude(m)": 558348.6827356007,
        "Argument of Periapsis(deg)": 0.01777750245507308,
        "Eccentricity": 0.0,
        "Inclination(deg)": 53.0,
        "Latitude(deg)": 46.37192427696772,
        "Longitude(deg)": 144.70580785127552,
        "Mean Anomaly(deg)": 64.69569138139248,
        "RAAN(deg)": 194.97354272604892,
        "Satellite Name": "Starlink Shell 1 860",
        "Satellite Number": 860,
        "Semi-Major Axis(m)": 6931778.249405717,
        "Time(s)": 510
    },
    {
        "Altitude(m)": 558418.576949357,
        "Argument of Periapsis(deg)": 0.018126080934584315,
        "Eccentricity": 0.0,
        "Inclination(deg)": 53.0,
        "Latitude(deg)": 46.67900033355059,
        "Longitude(deg)": 145.45721711448473,
        "Mean Anomaly(deg)": 65.32252258494917,
        "RAAN(deg)": 194.97302395597143,
        "Satellite Name": "Starlink Shell 1 860",
        "Satellite Number": 860,
        "Semi-Major Axis(m)": 6931778.249405717,
        "Time(s)": 520
    },
    {
        "Altitude(m)": 558487.302724739,
        "Argument of Periapsis(deg)": 0.018474659414095554,
        "Eccentricity": 0.0,
        "Inclination(deg)": 53.0,
        "Latitude(deg)": 46.980507992089365,
        "Longitude(deg)": 146.21756856635363,
        "Mean Anomaly(deg)": 65.94935378850589,
        "RAAN(deg)": 194.97250518589397,
        "Satellite Name": "Starlink Shell 1 860",
        "Satellite Number": 860,
        "Semi-Major Axis(m)": 6931778.249405717,
        "Time(s)": 530
    },
    {
        "Altitude(m)": 558554.817593737,
        "Argument of Periapsis(deg)": 0.018823237893606792,
        "Eccentricity": 0.0,
        "Inclination(deg)": 53.0,
        "Latitude(deg)": 47.27632648415723,
        "Longitude(deg)": 146.98688969243545,
        "Mean Anomaly(deg)": 66.57618499206266,
        "RAAN(deg)": 194.97198641581647,
        "Satellite Name": "Starlink Shell 1 860",
        "Satellite Number": 860,
        "Semi-Major Axis(m)": 6931778.249405717,
        "Time(s)": 540
    },
    {
        "Altitude(m)": 558621.0799077176,
        "Argument of Periapsis(deg)": 0.019171816373118027,
        "Eccentricity": 0.0,
        "Inclination(deg)": 53.0,
        "Latitude(deg)": 47.56633404165135,
        "Longitude(deg)": 147.7651985612073,
        "Mean Anomaly(deg)": 67.20301619561931,
        "RAAN(deg)": 194.971467645739,
        "Satellite Name": "Starlink Shell 1 860",
        "Satellite Number": 860,
        "Semi-Major Axis(m)": 6931778.249405717,
        "Time(s)": 550
    },
    {
        "Altitude(m)": 558686.0488580563,
        "Argument of Periapsis(deg)": 0.019520394852629266,
        "Eccentricity": 0.0,
        "Inclination(deg)": 53.0,
        "Latitude(deg)": 47.850408024941046,
        "Longitude(deg)": 148.55250377111486,
        "Mean Anomaly(deg)": 67.82984739917609,
        "RAAN(deg)": 194.97094887566152,
        "Satellite Name": "Starlink Shell 1 860",
        "Satellite Number": 860,
        "Semi-Major Axis(m)": 6931778.249405717,
        "Time(s)": 560
    }
]